[{"OBJECT_NAME":"ONEWEB-0028","OBJECT_ID":"2020-008K","EPOCH":"2026-03-09T22:18:30.547872","MEAN_MOTION":13.11413734,"ECCENTRICITY":0.00011977,"INCLINATION":87.8854,"RA_OF_ASC_NODE":40.8075,"ARG_OF_PERICENTER":81.6209,"MEAN_ANOMALY":278.5054,"EPHEMERIS_TYPE":0,"CLASSIFICATION_TYPE":"U","NORAD_CAT_ID":45140,"ELEMENT_SET_NO":999,"REV_AT_EPOCH":29561,"BSTAR":-0.0003401015,"MEAN_MOTION_DOT":-1.08e-6,"MEAN_MOTION_DDOT":0},{"OBJECT_NAME":"DELTA 1 DEB","OBJECT_ID":"1975-052N","EPOCH":"2026-03-09T23:12:03.771648","MEAN_MOTION":13.19242806,"ECCENTRICITY":0.01336351,"INCLINATION":99.7286,"RA_OF_ASC_NODE":209.692,"ARG_OF_PERICENTER":99.7903,"MEAN_ANOMALY":18.2718,"EPHEMERIS_TYPE":0,"CLASSIFICATION_TYPE":"U","NORAD_CAT_ID":21277,"ELEMENT_SET_NO":999,"REV_AT_EPOCH":67690,"BSTAR":0.00036888831,"MEAN_MOTION_DOT":1.15e-6,"MEAN_MOTION_DDOT":0}]
